SKYSAT-A                
1 39418U 13066C   26109.98405554  .00002142  00000+0  12551-3 0  9994
2 39418  97.3874 161.2333 0022420 152.0647 208.1793 15.12631616679687
SKYSAT-B                
1 40072U 14037D   26109.82166645  .00001003  00000+0  11631-3 0  9992
2 40072  98.3794  65.4848 0006943 103.8826 256.3162 14.87869049637287
SKYSAT-C1               
1 41601U 16040C   26110.03237850  .00008033  00000+0  23638-3 0  9999
2 41601  96.9622 144.9292 0001710 181.6177 178.5062 15.35312676548947
SKYSAT-C4               
1 41771U 16058B   26109.94732090  .00014350  00000+0  28791-3 0  9994
2 41771  96.9222 134.2208 0003645 104.3097 255.8559 15.46777445536467
SKYSAT-C5               
1 41772U 16058C   26110.04918095  .00006884  00000+0  21399-3 0  9999
2 41772  97.0527 153.3007 0004687 125.6038 234.5642 15.33621620534830
SKYSAT-C2               
1 41773U 16058D   26110.02699810  .00010437  00000+0  25706-3 0  9994
2 41773  97.0217 134.3540 0001316 232.5131 127.5997 15.40754135536096
SKYSAT-C3               
1 41774U 16058E   26110.08884376  .00018850  00000+0  33593-3 0  9994
2 41774  96.9103 143.2425 0002578 107.0704 253.0832 15.50138411537103
SKYSAT-C11              
1 42987U 17068A   26109.93470780  .00025129  00000+0  37730-3 0  9999
2 42987  97.4287 256.3921 0001274 152.6120 207.5201 15.54885170474183
SKYSAT-C10              
1 42988U 17068B   26110.30632104  .00006752  00000+0  21034-3 0  9994
2 42988  97.4422 246.6646 0001471 114.9169 245.2226 15.33601491473481
SKYSAT-C9               
1 42989U 17068C   26110.31040643  .00009199  00000+0  23151-3 0  9997
2 42989  97.4346 247.0688 0008043 353.6367   6.4775 15.40125841473846
SKYSAT-C8               
1 42990U 17068D   26110.10232606  .00009765  00000+0  28269-3 0  9992
2 42990  97.4440 246.0437 0001155 108.5743 251.5626 15.35797515473391
SKYSAT-C7               
1 42991U 17068E   26109.83312027  .00009500  00000+0  27553-3 0  9999
2 42991  97.4452 246.7575 0005018 324.2611  35.8296 15.35737060473416
SKYSAT-C6               
1 42992U 17068F   26109.95578094  .00008480  00000+0  26501-3 0  9999
2 42992  97.4488 247.0419 0002349  23.3330 336.8018 15.33415523473394
SKYSAT-C12              
1 43797U 18099AR  26110.30243338  .00010795  00000+0  21501-3 0  9996
2 43797  96.9310 135.9326 0004389  36.2746 323.8802 15.47054119412900
SKYSAT-C13              
1 43802U 18099AW  26109.36150668  .00137361  00000+0  56281-3 0  9992
2 43802  96.9286 157.3171 0004334 107.4968 252.6778 15.85674619413594
FLOCK 4Q-16             
1 58271U 23174R   26110.18342994  .00014614  00000+0  29304-3 0  9996
2 58271  97.3823 197.0630 0005814  26.4692 333.6854 15.46793508136606
FLOCK 4Q-11             
1 58273U 23174T   26110.17958391  .00014525  00000+0  28694-3 0  9993
2 58273  97.3874 197.5908 0005454  24.7928 335.3583 15.47231567136612
FLOCK 4Q-36             
1 58274U 23174U   26109.98900314  .00032549  00000+0  50513-3 0  9994
2 58274  97.3853 200.4411 0005235 357.7098   2.4131 15.53909789136781
FLOCK 4Q-28             
1 58280U 23174AA  26110.19547842  .00016947  00000+0  28694-3 0  9998
2 58280  97.3882 199.6474 0004204   5.7876 354.3424 15.51615706136748
FLOCK 4Q-27             
1 58282U 23174AC  26110.19308182  .00018148  00000+0  30837-3 0  9999
2 58282  97.3817 199.1448 0003952   6.2131 353.9169 15.51501385136752
FLOCK 4Q-26             
1 58284U 23174AE  26109.98662121  .00030674  00000+0  48167-3 0  9995
2 58284  97.3871 200.5205 0004968   7.6984 352.4345 15.53597326136786
FLOCK 4Q-31             
1 58285U 23174AF  26110.21738794  .00023115  00000+0  36437-3 0  9993
2 58285  97.3905 200.4089 0004781   7.1147 353.0173 15.53547058136775
FLOCK 4Q-30             
1 58286U 23174AG  26110.19976105  .00021290  00000+0  33350-3 0  9994
2 58286  97.3932 200.5958 0003444   9.6968 350.4351 15.53743907136786
PELICAN-1               
1 58296U 23174AS  26110.20899303  .00132994  00000+0  11321-2 0  9998
2 58296  97.3988 207.0040 0006093 159.9121 200.2382 15.69142162137055
FLOCK 4Q-29             
1 58304U 23174BA  26110.19923915  .00019205  00000+0  31760-3 0  9992
2 58304  97.3925 200.0978 0004212 355.2631   4.8581 15.52251697136758
FLOCK 4Q-22             
1 58306U 23174BC  26110.21021458  .00024713  00000+0  36394-3 0  9996
2 58306  97.3810 200.4219 0003089 356.3058   3.8173 15.55415046136840
FLOCK 4Q-33             
1 58308U 23174BE  26109.71068608  .00028968  00000+0  44664-3 0  9994
2 58308  97.3857 199.7935 0004495 348.1319  11.9828 15.54116751136745
FLOCK 4Q-35             
1 58309U 23174BF  26109.72591185  .00031218  00000+0  49977-3 0  9991
2 58309  97.3877 199.9188 0004318   6.2194 353.9111 15.53060781136729
FLOCK 4Q-7              
1 58318U 23174BQ  26109.98237176  .00027679  00000+0  46098-3 0  9993
2 58318  97.3897 199.6602 0004938 352.3843   7.7334 15.51976414136710
FLOCK 4Q-2              
1 58320U 23174BS  26110.29054255  .00014797  00000+0  29345-3 0  9990
2 58320  97.3826 197.4718 0004929 358.1727   1.9504 15.47119286136642
FLOCK 4Q-9              
1 58322U 23174BU  26110.18773297  .00019105  00000+0  38030-3 0  9993
2 58322  97.3859 197.4134 0004957 359.0812   1.0428 15.46953082136610
FLOCK 4Q-4              
1 58327U 23174BZ  26110.20413220  .00014216  00000+0  29058-3 0  9996
2 58327  97.3822 196.7440 0005509  26.5406 333.6124 15.46242847136590
FLOCK 4Q-13             
1 58328U 23174CA  26109.96862850  .00019409  00000+0  35818-3 0  9995
2 58328  97.3991 199.1983 0005542  16.3537 343.7892 15.49134764136658
FLOCK 4BE-18            
1 60480U 24149N   26110.21976520  .00011137  00000+0  28142-3 0  9992
2 60480  97.3733 193.4275 0005227 110.2771 249.9037 15.39961737 93386
FLOCK 4BE-7             
1 60481U 24149P   26110.22454034  .00012601  00000+0  33996-3 0  9995
2 60481  97.3760 192.9069 0004437 113.8567 246.3144 15.37915633 93333
FLOCK 4BE-26            
1 60484U 24149S   26110.16482006  .00076944  00000+0  11951-2 0  9997
2 60484  97.3687 193.9027 0004293 151.5916 208.5572 15.53690026 93414
FLOCK 4BE-36            
1 60486U 24149U   26110.22467242  .00012071  00000+0  29582-3 0  9992
2 60486  97.3743 194.0413 0005165 117.6529 242.5242 15.40873068 93420
FLOCK 4BE-25            
1 60487U 24149V   26110.18500530  .00009842  00000+0  27136-3 0  9991
2 60487  97.3799 193.0096 0003806 111.5693 248.5958 15.37310642 93322
FLOCK 4BE-31            
1 60488U 24149W   26109.97497025  .00018438  00000+0  43595-3 0  9999
2 60488  97.3802 194.4993 0004148 119.8791 240.2869 15.41865459 93404
FLOCK 4BE-20            
1 60489U 24149X   26109.79334339  .00012681  00000+0  35785-3 0  9994
2 60489  97.3702 191.6437 0005362 116.1693 244.0103 15.36511153 93244
FLOCK 4BE-23            
1 60490U 24149Y   26109.96510754  .00012648  00000+0  36102-3 0  9999
2 60490  97.3781 192.1594 0005058 121.6627 238.5111 15.36157250 93255
FLOCK 4BE-15            
1 60491U 24149Z   26110.18482159  .00053797  00000+0  10365-2 0  9995
2 60491  97.3715 193.9353 0006042 185.2398 174.8790 15.47677890 93423
FLOCK 4BE-17            
1 60492U 24149AA  26109.50444888  .00015398  00000+0  41295-3 0  9999
2 60492  97.3778 192.4883 0004607 114.4573 245.7153 15.38053595 93239
FLOCK 4BE-22            
1 60494U 24149AC  26110.18735300  .00011413  00000+0  29394-3 0  9999
2 60494  97.3736 193.2792 0005105 119.3204 240.8552 15.39370147 93372
FLOCK 4BE-34            
1 60495U 24149AD  26110.20583659  .00010239  00000+0  26326-3 0  9998
2 60495  97.3781 194.0805 0005429 125.6759 234.4992 15.39452050 93406
FLOCK 4BE-32            
1 60497U 24149AF  26110.20629475  .00010280  00000+0  25797-3 0  9994
2 60497  97.3722 193.5962 0005309 123.9750 236.2001 15.40194877 93403
FLOCK 4BE-30            
1 60499U 24149AH  26110.15750733  .00076878  00000+0  16278-2 0  9990
2 60499  97.3791 194.2936 0003933 177.7212 182.4055 15.44829362 92780
FLOCK 4BE-11            
1 60501U 24149AK  26110.23264912  .00012493  00000+0  30455-3 0  9999
2 60501  97.3702 193.7951 0005391 123.8633 236.3128 15.41023806 93424
FLOCK 4BE-24            
1 60505U 24149AP  26110.21819045  .00012991  00000+0  31792-3 0  9992
2 60505  97.3719 194.0256 0005439 132.5896 227.5810 15.40896432 93432
TANAGER-1               
1 60507U 24149AR  26109.98398549  .00011161  00000+0  24534-3 0  9991
2 60507  97.3511 203.9026 0007370 148.3908 211.7784 15.44146415 94051
FLOCK 4BE-29            
1 60509U 24149AT  26110.20929512  .00011568  00000+0  27140-3 0  9997
2 60509  97.3809 195.2969 0004186 136.2564 223.9016 15.42208002 93475
FLOCK 4BE-2             
1 60511U 24149AV  26110.20414669  .00031371  00000+0  62029-3 0  9991
2 60511  97.3822 196.1175 0004936 138.5777 221.5848 15.47049592 93521
FLOCK 4BE-13            
1 60512U 24149AW  26110.17183920  .00009857  00000+0  24667-3 0  9991
2 60512  97.3718 194.0518 0005533 117.6448 242.5361 15.40289205 93434
FLOCK 4BE-27            
1 60513U 24149AX  26110.20110540  .00006796  00000+0  21276-3 0  9996
2 60513  97.3826 192.0694 0005301 137.8951 222.2700 15.33425811 93253
FLOCK 4BE-9             
1 60514U 24149AY  26110.19155463  .00011132  00000+0  28998-3 0  9996
2 60514  97.3792 193.9800 0004322 137.5512 222.6068 15.39033216 93393
FLOCK 4BE-6             
1 60516U 24149BA  26110.17746097  .00009586  00000+0  25877-3 0  9998
2 60516  97.3792 193.4266 0005127 136.9238 223.2409 15.37970792 93357
FLOCK 4BE-14            
1 60517U 24149BB  26110.21048661  .00010805  00000+0  28007-3 0  9990
2 60517  97.3702 193.5531 0006088 137.7867 222.3848 15.39185367 93400
FLOCK 4BE-1             
1 60518U 24149BC  26110.21921998  .00012366  00000+0  30505-3 0  9994
2 60518  97.3780 194.6389 0005643 137.8820 222.2861 15.40664926 93449
FLOCK 4BE-28            
1 60519U 24149BD  26110.18849966  .00012862  00000+0  29503-3 0  9992
2 60519  97.3748 195.1578 0005683 134.2818 225.8897 15.42848941 93498
FLOCK 4BE-35            
1 60558U 24149CU  26110.26706992  .00075251  00000+0  12088-2 0  9995
2 60558  97.3716 194.3683 0005257 165.6260 194.5143 15.52757733 93439
FLOCK 4BE-5             
1 60559U 24149CV  26110.17566424  .00011677  00000+0  30865-3 0  9996
2 60559  97.3843 193.6941 0004672 138.2480 221.9122 15.38569761 93359
FLOCK 4BE-12            
1 60560U 24149CW  26110.18242936  .00098714  00000+0  13105-2 0  9992
2 60560  97.3674 195.2400 0005836 175.5711 184.5598 15.57878583 93509
FLOCK 4BE-3             
1 60561U 24149CX  26110.21161125  .00010804  00000+0  27508-3 0  9994
2 60561  97.3699 193.6484 0005879 132.6892 227.4850 15.39731683 93419
FLOCK 4BE-19            
1 60563U 24149CZ  26110.22140189  .00011970  00000+0  28138-3 0  9999
2 60563  97.3744 194.9323 0005613 134.5354 225.6353 15.42133188 93483
FLOCK 4G-8              
1 62613U 25009E   26110.17302156  .00007563  00000+0  27440-3 0  9999
2 62613  97.4012 192.4713 0005351 148.4685 211.6876 15.28601792 70054
FLOCK 4G-13             
1 62621U 25009N   26109.96529920  .00050842  00000+0  13778-2 0  9999
2 62621  97.3976 192.5158 0005985 164.2782 195.8650 15.37468364 70039
FLOCK 4G-9              
1 62622U 25009P   26110.16822711  .00006769  00000+0  25781-3 0  9995
2 62622  97.3965 191.5900 0005549 155.0001 205.1508 15.27036252 70000
FLOCK 4G-7              
1 62624U 25009R   26110.19725712  .00007680  00000+0  28296-3 0  9990
2 62624  97.3948 191.8972 0003863 144.9015 215.2480 15.28095728 70043
FLOCK 4G-12             
1 62625U 25009S   26110.18586388  .00007554  00000+0  27958-3 0  9998
2 62625  97.4023 192.3622 0005437 144.8243 215.3356 15.27947944 70046
FLOCK 4G-11             
1 62629U 25009W   26110.11378409  .00008982  00000+0  32984-3 0  9999
2 62629  97.3935 191.9411 0003867 148.0929 212.0545 15.28154008 70040
PELICAN-2               
1 62631U 25009Y   26109.71859940 -.00003142  00000+0 -75747-4 0  9990
2 62631  97.3680 200.4735 0004246 101.5812 258.5911 15.40406459 70554
FLOCK 4G-26             
1 62633U 25009AA  26110.19899099  .00006959  00000+0  25581-3 0  9992
2 62633  97.4020 192.5064 0004721 137.6360 222.5245 15.28205587 70058
FLOCK 4G-28             
1 62634U 25009AB  26110.20892398  .00006275  00000+0  19391-3 0  9993
2 62634  97.4022 194.5830 0003157 131.4651 228.6864 15.33883582 70193
FLOCK 4G-20             
1 62636U 25009AD  26110.17079107  .00040977  00000+0  92342-3 0  9990
2 62636  97.3893 193.3396 0004383 181.2245 178.8993 15.43142725 70140
FLOCK 4G-24             
1 62637U 25009AE  26110.17008822  .00007179  00000+0  25937-3 0  9990
2 62637  97.4024 192.7159 0004462 127.7899 232.3746 15.28763430 70064
FLOCK 4G-3              
1 62639U 25009AG  26110.19782677  .00008013  00000+0  29448-3 0  9990
2 62639  97.4027 192.5224 0004289 132.9287 227.2313 15.28166887 70040
FLOCK 4G-27             
1 62641U 25009AJ  26110.21516532  .00007543  00000+0  27754-3 0  9996
2 62641  97.3940 191.9962 0003505 135.1459 225.0064 15.28147391 70042
FLOCK 4G-29             
1 62642U 25009AK  26110.20630095  .00006675  00000+0  24503-3 0  9991
2 62642  97.4024 192.4873 0004283 129.5592 230.6027 15.28266232 70040
FLOCK 4G-22             
1 62645U 25009AN  26110.21709208  .00006574  00000+0  24234-3 0  9997
2 62645  97.4010 192.5650 0003831 128.9131 231.2451 15.28137152 70060
FLOCK 4G-25             
1 62646U 25009AP  26110.20183545  .00006979  00000+0  25564-3 0  9993
2 62646  97.4016 192.5956 0003272 134.1447 226.0062 15.28323400 70067
FLOCK 4G-23             
1 62647U 25009AQ  26110.17710561  .00022181  00000+0  80515-3 0  9994
2 62647  97.3943 192.0849 0002742 147.3830 212.7580 15.28324284 70052
FLOCK 4G-34             
1 62650U 25009AT  26110.19498001  .00007555  00000+0  27844-3 0  9996
2 62650  97.3967 192.1599 0003188 132.8593 227.2915 15.28096479 70050
FLOCK 4G-21             
1 62651U 25009AU  26110.21202259  .00007989  00000+0  28268-3 0  9990
2 62651  97.3994 192.9203 0003034 135.2275 224.9210 15.29414876 70097
FLOCK 4G-31             
1 62652U 25009AV  26110.21437402  .00007053  00000+0  26142-3 0  9992
2 62652  97.3972 192.1691 0002752 134.3823 225.7642 15.27934882 70058
FLOCK 4G-4              
1 62659U 25009BC  26110.16051872  .00009027  00000+0  33603-3 0  9999
2 62659  97.3955 191.8582 0003491 145.9506 214.1958 15.27707576127646
FLOCK 4G-6              
1 62660U 25009BD  26110.16431842  .00008135  00000+0  29629-3 0  9992
2 62660  97.3948 191.9410 0004215 157.5460 202.5965 15.28456756127634
FLOCK 4G-2              
1 62661U 25009BE  26110.17463506  .00008008  00000+0  28952-3 0  9993
2 62661  97.4012 192.4787 0005069 154.7855 205.3633 15.28702129127660
FLOCK 4G-5              
1 62663U 25009BG  26110.20683898  .00006150  00000+0  21780-3 0  9995
2 62663  97.4027 192.8041 0004554 138.9492 221.2092 15.29477546 70075
FLOCK 4G-1              
1 62666U 25009BK  26110.21358986  .00006897  00000+0  25172-3 0  9993
2 62666  97.4025 192.5062 0005292 153.6281 206.5229 15.28441561 70059
FLOCK 4G-14             
1 62667U 25009BL  26110.15579360  .00010577  00000+0  38865-3 0  9991
2 62667  97.4026 192.2976 0005526 148.4347 211.7225 15.28082504 70037
FLOCK 4G-10             
1 62670U 25009BP  26109.97410983  .00008429  00000+0  31007-3 0  9992
2 62670  97.3932 191.5200 0005259 163.8208 196.3200 15.28111923127647
FLOCK 4G-36             
1 62675U 25009BU  26109.97082248  .00010151  00000+0  37159-3 0  9995
2 62675  97.4019 192.0338 0005707 153.4175 206.7358 15.28216448 70008
FLOCK 4G-15             
1 62678U 25009BX  26109.71861026  .00010007  00000+0  36617-3 0  9997
2 62678  97.4019 191.9168 0005852 151.9716 208.1840 15.28232091127619
FLOCK 4G-30             
1 62679U 25009BY  26109.97138923  .00006944  00000+0  25523-3 0  9998
2 62679  97.3933 191.5375 0005341 165.7169 194.4223 15.28204773127649
FLOCK 4G-18             
1 62680U 25009BZ  26110.24010075  .00006759  00000+0  24851-3 0  9996
2 62680  97.4017 192.2646 0006112 161.4802 198.6661 15.28205180127687
FLOCK 4G-17             
1 62681U 25009CA  26110.21243401  .00007321  00000+0  26774-3 0  9997
2 62681  97.3929 191.9625 0005438 164.0969 196.0442 15.28353090127699
FLOCK 4G-33             
1 62685U 25009CE  26109.72302890  .00005439  00000+0  22237-3 0  9991
2 62685  97.3953 190.2944 0006257 161.6184 198.5281 15.24753452 69895
PELICAN-3               
1 65315U 25188A   26110.17911538  .00004390  00000+0  11010-3 0  9990
2 65315  97.1975 187.2084 0004185 150.2324 209.9162 15.40545281 36389
PELICAN-4               
1 65316U 25188B   26110.19429812  .00000870  00000+0  23328-4 0  9997
2 65316  97.2067 187.3648 0005960 152.4562 207.7002 15.40671319 36381
PELICAN-5               
1 66667U 25276B   26109.95809539  .00003502  00000+0  12966-3 0  9995
2 66667  97.4170 185.1513 0004370 163.3684 196.7700 15.28326130 21622
PELICAN-6               
1 66703U 25276AP  26110.09278376  .00007168  00000+0  25984-3 0  9998
2 66703  97.4190 185.4412 0002780  68.9070 291.2467 15.28663395 21659
FLOCK 4H-1              
1 66704U 25276AQ  26110.19124221  .00003704  00000+0  17570-3 0  9993
2 66704  97.4194 184.8168 0003196 135.2173 224.9321 15.19885994 21629
FLOCK 4H-2              
1 66705U 25276AR  26110.24542675  .00004419  00000+0  20749-3 0  9993
2 66705  97.4191 184.8897 0002430 129.3980 230.7470 15.20142216 21632
FLOCK 4H-3              
1 66706U 25276AS  26110.18596329  .00004065  00000+0  19599-3 0  9990
2 66706  97.4260 184.7919 0004013 180.3394 179.7839 15.19263052 21618
FLOCK 4H-4              
1 66707U 25276AT  26109.94557661  .00005645  00000+0  27270-3 0  9999
2 66707  97.4243 184.4717 0004593 185.9648 174.1532 15.19025390 21574
FLOCK 4H-5              
1 66708U 25276AU  26110.18642061  .00004203  00000+0  19868-3 0  9990
2 66708  97.4196 184.8275 0002032 121.6247 238.5186 15.19932934 21620
FLOCK 4H-6              
1 66709U 25276AV  26110.14855889  .00004628  00000+0  22054-3 0  9993
2 66709  97.4244 184.8184 0004006 153.0719 207.0724 15.19601183 21617
FLOCK 4H-7              
1 66710U 25276AW  26110.18240554  .00004260  00000+0  20478-3 0  9996
2 66710  97.4202 184.6878 0001814 187.3658 172.7550 15.19343893 21613
FLOCK 4H-8              
1 66711U 25276AX  26109.71755363  .00005568  00000+0  26604-3 0  9992
2 66711  97.4245 184.3232 0003108 193.7981 166.3169 15.19418381 21542
FLOCK 4H-9              
1 66712U 25276AY  26110.20913391  .00004347  00000+0  20662-3 0  9998
2 66712  97.4233 184.8733 0003959 158.9543 201.1855 15.19719662 21627
FLOCK 4H-10             
1 66713U 25276AZ  26109.93667792  .00005534  00000+0  26649-3 0  9998
2 66713  97.4209 184.4207 0004426 186.0432 174.0749 15.19146492 21571
FLOCK 4H-11             
1 66714U 25276BA  26109.97417476  .00011373  00000+0  51482-3 0  9996
2 66714  97.4220 184.7100 0002963 187.5068 172.6124 15.21050606 21592
FLOCK 4H-12             
1 66715U 25276BB  26109.73762796  .00005216  00000+0  24698-3 0  9997
2 66715  97.4207 184.3707 0003168 141.6034 218.5427 15.19764444 21864
FLOCK 4H-13             
1 66716U 25276BC  26110.24591556  .00004422  00000+0  20825-3 0  9996
2 66716  97.4237 184.9815 0002643 121.9801 238.1691 15.20036072 21631
FLOCK 4H-14             
1 66717U 25276BD  26109.96320832  .00005636  00000+0  26226-3 0  9990
2 66717  97.4225 184.7216 0002404 117.5570 242.5910 15.20330812 20845
FLOCK 4H-15             
1 66718U 25276BE  26110.15341341  .00005539  00000+0  26861-3 0  9999
2 66718  97.4237 184.6411 0003911 197.6814 162.4285 15.18902370 21600
FLOCK 4H-16             
1 66719U 25276BF  26110.13942816  .00005834  00000+0  28117-3 0  9996
2 66719  97.4253 184.6895 0004267 186.1122 174.0061 15.19096648 21609
FLOCK 4H-18             
1 66721U 25276BH  26110.20916438  .00004674  00000+0  22604-3 0  9994
2 66721  97.4196 184.6415 0003162 206.3510 153.7564 15.19079043 21618
FLOCK 4H-19             
1 66722U 25276BJ  26110.21374744  .00004048  00000+0  18896-3 0  9997
2 66722  97.4197 184.9447 0003148 118.7997 241.3555 15.20391693 20924
FLOCK 4H-20             
1 66723U 25276BK  26109.95966181  .00006393  00000+0  29598-3 0  9995
2 66723  97.4234 184.7431 0003952 131.0605 229.0973 15.20454540 20844
FLOCK 4H-21             
1 66724U 25276BL  26110.16634992  .00004374  00000+0  20543-3 0  9991
2 66724  97.4200 184.8592 0003784 129.6168 230.5402 15.20137138 20875
FLOCK 4H-22             
1 66725U 25276BM  26110.17729993  .00004506  00000+0  21577-3 0  9994
2 66725  97.4188 184.6694 0002088 195.7928 164.3242 15.19445244 21613
FLOCK 4H-23             
1 66726U 25276BN  26110.20732901  .00004678  00000+0  22637-3 0  9990
2 66726  97.4258 184.7593 0004602 177.9688 182.1566 15.19054464 21617
FLOCK 4H-24             
1 66727U 25276BP  26109.73671570  .00005785  00000+0  27845-3 0  9997
2 66727  97.4255 184.3170 0003643 193.6651 166.4485 15.19147677 21547
FLOCK 4H-25             
1 66728U 25276BQ  26110.24537319  .00003958  00000+0  18686-3 0  9991
2 66728  97.4211 184.9276 0002169 108.4403 251.7068 15.20014580 20917
FLOCK 4H-26             
1 66729U 25276BR  26110.15090845  .00004660  00000+0  22644-3 0  9990
2 66729  97.4207 184.5908 0004603 193.3619 166.7494 15.18915853 21603
FLOCK 4H-27             
1 66730U 25276BS  26109.93442738  .00004688  00000+0  22241-3 0  9991
2 66730  97.4188 184.5321 0002065 120.0874 240.0565 15.19747650 21583
FLOCK 4H-28             
1 66731U 25276BT  26110.21551483  .00004712  00000+0  22859-3 0  9996
2 66731  97.4196 184.6350 0004167 193.2733 166.8392 15.18968567 21615
FLOCK 4H-29             
1 66732U 25276BU  26110.20413059  .00004417  00000+0  21392-3 0  9995
2 66732  97.4188 184.6313 0002790 197.9820 162.1316 15.19061422 21614
FLOCK 4H-30             
1 66733U 25276BV  26110.20192703  .00004518  00000+0  21826-3 0  9990
2 66733  97.4248 184.7536 0004015 192.0544 168.0595 15.19137512 21619
FLOCK 4H-31             
1 66734U 25276BW  26110.14573042  .00005568  00000+0  26953-3 0  9995
2 66734  97.4185 184.5553 0003280 196.9086 163.2039 15.18965127 21603
FLOCK 4H-32             
1 66735U 25276BX  26110.20596279  .00004564  00000+0  22093-3 0  9996
2 66735  97.4242 184.7335 0004469 190.0785 170.0361 15.19062607 21616
FLOCK 4H-33             
1 66736U 25276BY  26109.17694058  .00004614  00000+0  21575-3 0  9995
2 66736  97.4241 183.9650 0003588 125.7114 234.4456 15.20260162 21471
FLOCK 4H-34             
1 66737U 25276BZ  26110.19302526  .00005603  00000+0  26483-3 0  9998
2 66737  97.4250 184.9263 0003695 130.8886 229.2669 15.19789329 20875
FLOCK 4H-35             
1 66738U 25276CA  26109.45444666  .00004854  00000+0  22842-3 0  9990
2 66738  97.4220 184.1601 0003205 119.6018 240.5537 15.20013409 20804
FLOCK 4H-36             
1 66739U 25276CB  26110.13746325  .00004774  00000+0  22637-3 0  9998
2 66739  97.4263 184.8646 0003704 139.8143 220.3367 15.19754708 21614
