ISS (ZARYA)             
1 25544U 98067A   26110.13518311  .00007929  00000+0  15272-3 0  9999
2 25544  51.6328 227.4156 0006665 328.2959  31.7627 15.48842238562751
POISK                   
1 36086U 09060A   26110.13518311  .00007929  00000+0  15272-3 0  9997
2 36086  51.6328 227.4156 0006665 328.2959  31.7627 15.48842238561494
CSS (TIANHE)            
1 48274U 21035A   26110.02725747  .00025743  00000+0  28261-3 0  9992
2 48274  41.4678 316.2568 0006502 241.8561 118.1622 15.62589866284076
ISS (NAUKA)             
1 49044U 21066A   26110.13518311  .00007929  00000+0  15272-3 0  9995
2 49044  51.6328 227.4156 0006665 328.2959  31.7627 15.48842238561537
FREGAT DEB              
1 49271U 11037PF  26108.23687171  .00000980  00000+0  16109-2 0  9992
2 49271  51.6415 181.9872 0945415 150.0785 215.7731 12.40993473217601
CSS (WENTIAN)           
1 53239U 22085A   26110.02725747  .00025743  00000+0  28261-3 0  9995
2 53239  41.4678 316.2568 0006502 241.8561 118.1622 15.62589866283139
CSS (MENGTIAN)          
1 54216U 22143A   26110.02725747  .00025743  00000+0  28261-3 0  9996
2 54216  41.4678 316.2568 0006502 241.8561 118.1622 15.62589866284068
TIANZHOU-9              
1 64786U 25149A   26110.02725747  .00025743  00000+0  28261-3 0  9998
2 64786  41.4678 316.2568 0006502 241.8561 118.1622 15.62589866284072
PROGRESS-MS 32          
1 65586U 25204A   26110.13518311  .00007929  00000+0  15272-3 0  9992
2 65586  51.6328 227.4156 0006665 328.2959  31.7627 15.48842238554505
BOTAN                   
1 65943U 98067XQ  26108.50080101  .04905991  12189-4  10064-2 0  9994
2 65943  51.6087 206.4857 0010568 326.5110  33.5243 16.30209286 29857
HRC MONOBLOCK CAMERA    
1 66052U 98067XR  26110.28262289  .00038853  00000+0  36474-3 0  9991
2 66052  51.6265 214.8859 0004323 309.0386  51.0225 15.66761300 28903
HTV-X1                  
1 66174U 25241A   26109.66693346  .00005975  00000+0  19778-3 0  9999
2 66174  51.6366 235.4531 0007673 331.4211  28.6349 15.32697623 27223
SZ-21 MODULE            
1 66515U 25246C   26109.84223800  .00036207  00000+0  27285-3 0  9991
2 66515  41.4737 309.4069 0004429 295.2816  64.7567 15.71748286 24543
SHENZHOU-22             
1 66645U 25272A   26110.02725747  .00025743  00000+0  28261-3 0  9991
2 66645  41.4678 316.2568 0006502 241.8561 118.1622 15.62589866284089
SOYUZ-MS 28             
1 66664U 25275A   26110.13518311  .00007929  00000+0  15272-3 0  9998
2 66664  51.6328 227.4156 0006665 328.2959  31.7627 15.48842238561770
DUPLEX                  
1 66906U 98067XS  26110.03309750  .00028265  00000+0  36371-3 0  9999
2 66906  51.6288 222.2330 0004262 316.4091  43.6565 15.58821856 21574
ISS OBJECT XT           
1 66907U 98067XT  26109.55888258  .00415498  74749-4  14285-2 0  9993
2 66907  51.6200 214.4723 0011472 333.2606  26.7806 15.88963868 21638
ISS OBJECT XU           
1 66908U 98067XU  26109.98958199  .00365310  60410-4  12072-2 0  9992
2 66908  51.6192 212.0904 0011416 333.9645  26.0785 15.89766386 21706
SILVERSAT               
1 66909U 98067XV  26110.30149977  .01400443  13415-2  13903-2 0  9990
2 66909  51.6101 207.3485 0013785 338.7955  21.2486 16.10656402 21792
ISS OBJECT XW           
1 66910U 98067XW  26109.47462722  .00318697  00000+0  12783-2 0  9990
2 66910  51.6189 215.4060 0010632 327.7961  32.2392 15.84996751 21615
ISS OBJECT XY           
1 66912U 98067XY  26110.00357699  .00122650  00000+0  87892-3 0  9995
2 66912  51.6235 216.7540 0007245 326.6376  33.4165 15.72772208 21639
KNACKSAT-2              
1 67683U 98067XZ  26109.57423316  .00038891  00000+0  56864-3 0  9999
2 67683  51.6307 228.1722 0011885 340.4286  19.6247 15.55149881 11141
CORAL                   
1 67684U 98067YA  26109.55985891  .00097656  00000+0  11041-2 0  9990
2 67684  51.6282 226.5714 0015604 332.8930  27.1247 15.61515139 11167
GXIBA-1                 
1 67685U 98067YB  26109.61914789  .00045577  00000+0  64537-3 0  9990
2 67685  51.6296 227.7212 0013747 337.6554  22.3836 15.55920446 11154
UITMSAT-2               
1 67686U 98067YC  26110.03647409  .00052292  00000+0  69974-3 0  9993
2 67686  51.6300 225.2605 0010752 319.1163  40.9021 15.57425635 11226
HMU-SAT2                
1 67687U 98067YD  26110.01358095  .00038363  00000+0  55186-3 0  9995
2 67687  51.6309 225.8604 0009988 320.5824  39.4440 15.55623505 11132
LEOPARD                 
1 67688U 98067YE  26109.60181765  .00053374  00000+0  73319-3 0  9994
2 67688  51.6313 227.6090 0010319 317.4453  42.5738 15.56718917 11071
CREW DRAGON 12          
1 67796U 26031A   26110.13518311  .00007929  00000+0  15272-3 0  9996
2 67796  51.6328 227.4156 0006665 328.2959  31.7627 15.48842238562835
PROGRESS-MS 33          
1 68319U 26058A   26110.13518311  .00007929  00000+0  15272-3 0  9997
2 68319  51.6328 227.4156 0006665 328.2959  31.7627 15.48842238  3163
CYGNUS NG-24            
1 68689U 26079A   26110.13518311  .00007929  00000+0  15272-3 0  9990
2 68689  51.6328 227.4156 0006665 328.2959  31.7627 15.48842238  1318
