DMSP 5D-3 F16 (USA 172) 
1 28054U 03048A   25334.61302672  .00000146  00000+0  99930-4 0  9992
2 28054  99.0056 351.9742 0007020 357.4534 111.1026 14.14417142141413
METEOSAT-9 (MSG-2)      
1 28912U 05049B   25333.87238306  .00000144  00000+0  00000+0 0  9990
2 28912   8.9081  56.0917 0003864 183.2571 189.3357  1.00270171  5006
DMSP 5D-3 F17 (USA 191) 
1 29522U 06050A   25334.60759938  .00000190  00000+0  12093-3 0  9992
2 29522  98.7396 340.2492 0009122 262.7328  97.2808 14.14911175984337
FENGYUN 3A              
1 32958U 08026A   25334.56187431  .00000123  00000+0  78809-4 0  9996
2 32958  98.6679 274.3462 0008497 347.7404  12.3565 14.19508200907221
GOES 14                 
1 35491U 09033A   25334.55528497 -.00000046  00000+0  00000+0 0  9998
2 35491   1.1647  85.5527 0004068 147.7209 287.9667  1.00272732  4602
DMSP 5D-3 F18 (USA 210) 
1 35951U 09057A   25334.56170138  .00000264  00000+0  15993-3 0  9993
2 35951  98.8821 311.0243 0012090  94.3945 265.8609 14.14757746831500
EWS-G2 (GOES 15)        
1 36411U 10008A   25334.58903753  .00000059  00000+0  00000+0 0  9993
2 36411   0.7809  86.0318 0005815 168.5708  88.7137  1.00267636 57648
COMS 1                  
1 36744U 10032A   25334.60962618 -.00000322  00000+0  00000+0 0  9991
2 36744   4.3096  78.1322 0000971 172.8892 166.3633  1.00270933 49090
FENGYUN 3B              
1 37214U 10059A   25334.66093113  .00000102  00000+0  76418-4 0  9990
2 37214  98.9925  14.5530 0022561  31.7395  77.0489 14.14784383779352
SUOMI NPP               
1 37849U 11061A   25334.56998176  .00000112  00000+0  74153-4 0  9995
2 37849  98.7754 272.0222 0001778 142.4675 217.6626 14.19508557730265
METEOSAT-10 (MSG-3)     
1 38552U 12035B   25334.07743935  .00000015  00000+0  00000+0 0  9993
2 38552   4.1965  61.7407 0000543 218.0524 177.3977  1.00272045 48867
METOP-B                 
1 38771U 12049A   25334.61505329  .00000144  00000+0  85960-4 0  9990
2 38771  98.6818  24.7784 0002345 172.0559 188.0656 14.21401059685058
INSAT-3D                
1 39216U 13038B   25334.58378190 -.00000317  00000+0  00000+0 0  9994
2 39216   1.4104  85.1358 0001643 148.3910 175.8358  1.00275452 45083
FENGYUN 3C              
1 39260U 13052A   25334.58829146  .00000127  00000+0  85677-4 0  9997
2 39260  98.4750 312.8618 0013722 232.7329 127.2595 14.15690253630463
METEOR-M 2              
1 40069U 14037A   25334.64056074  .00000170  00000+0  97232-4 0  9997
2 40069  98.4889 312.6897 0004634 250.8201 109.2476 14.21378946591119
HIMAWARI-8              
1 40267U 14060A   25334.60472429 -.00000253  00000+0  00000+0 0  9990
2 40267   0.0414 147.0300 0001079 126.6370 154.4474  1.00273197 40763
FENGYUN 2G              
1 40367U 14090A   25334.31099267 -.00000281  00000+0  00000+0 0  9998
2 40367   5.1339  75.2418 0002914 192.7429  13.1735  1.00269042 40008
METEOSAT-11 (MSG-4)     
1 40732U 15034A   25334.57863748  .00000085  00000+0  00000+0 0  9995
2 40732   2.7052  72.0316 0000285 156.5748  58.8263  1.00276906  5226
ELEKTRO-L 2             
1 41105U 15074A   25334.07449266 -.00000096  00000+0  00000+0 0  9997
2 41105   6.1909  72.9771 0003788 196.1210 172.4306  1.00270185 36519
INSAT-3DR               
1 41752U 16054A   25334.52018475 -.00000056  00000+0  00000+0 0  9994
2 41752   0.0592  90.4631 0014269 178.1538  62.3528  1.00269759 33826
HIMAWARI-9              
1 41836U 16064A   25334.46205359 -.00000254  00000+0  00000+0 0  9990
2 41836   0.0554  97.9436 0001469 156.9027 121.8552  1.00267068 33219
GOES 16                 
1 41866U 16071A   25334.55606497 -.00000069  00000+0  00000+0 0  9993
2 41866   0.0591 102.2942 0003254 152.3519 270.5630  1.00270810 33112
FENGYUN 4A              
1 41882U 16077A   25332.60376534 -.00000337  00000+0  00000+0 0  9995
2 41882   1.8103  82.5211 0004895 153.8506 172.3173  1.00262544 32914
CYGFM05                 
1 41884U 16078A   25334.60958577  .00020329  00000+0  39045-3 0  9990
2 41884  34.9574 126.3284 0009470  65.5800 294.5909 15.46965770497883
CYGFM04                 
1 41885U 16078B   25334.65209138  .00054819  00000+0  96074-3 0  9994
2 41885  34.9335 101.1676 0008510  97.1381 263.0309 15.49420315498064
CYGFM02                 
1 41886U 16078C   25334.66046454  .00025308  00000+0  42198-3 0  9995
2 41886  34.9423  99.5950 0010131  95.7567 264.4310 15.50938577498197
CYGFM01                 
1 41887U 16078D   25334.60614505  .00020774  00000+0  39128-3 0  9999
2 41887  34.9407 128.7852 0009172  56.6467 303.5132 15.47525095497823
CYGFM08                 
1 41888U 16078E   25334.60680109  .00022341  00000+0  40354-3 0  9998
2 41888  34.9439 111.9110 0010712  82.9990 277.1950 15.48693257498052
CYGFM07                 
1 41890U 16078G   25334.61350268  .00023446  00000+0  41532-3 0  9998
2 41890  34.9458 100.9132 0008870 102.6531 257.5183 15.49260409498073
CYGFM03                 
1 41891U 16078H   25334.57788392  .00023020  00000+0  40927-3 0  9992
2 41891  34.9413 103.0591 0008263  87.2432 272.9235 15.49164739498047
FENGYUN 3D              
1 43010U 17072A   25334.61610948  .00000122  00000+0  79342-4 0  9990
2 43010  98.9876 300.7459 0000519 240.2630 119.8494 14.19678029416810
NOAA 20 (JPSS-1)        
1 43013U 17073A   25334.58489337  .00000098  00000+0  67357-4 0  9991
2 43013  98.7581 271.0156 0002019 104.4627 255.6773 14.19520435416290
GOES 17                 
1 43226U 18022A   25334.55909832 -.00000161  00000+0  00000+0 0  9995
2 43226   0.4252  89.4004 0003349 180.3645 271.7074  1.00270369 28436
FENGYUN 2H              
1 43491U 18050A   25334.52122475 -.00000108  00000+0  00000+0 0  9998
2 43491   2.5164  81.4655 0002768 159.9384  95.2489  1.00271865 27446
METOP-C                 
1 43689U 18087A   25334.57422813  .00000142  00000+0  84852-4 0  9990
2 43689  98.6947  32.5292 0001803  62.0809 298.0550 14.21504485366610
GEO-KOMPSAT-2A          
1 43823U 18100A   25334.58378190  .00000000  00000+0  00000+0 0  9996
2 43823   0.0271  85.2638 0000585 117.3715 205.4841  1.00269613 25635
METEOR-M2 2             
1 44387U 19038A   25334.58357442  .00000195  00000+0  10430-3 0  9997
2 44387  98.8960 314.1644 0000727 173.6613 186.4575 14.24283062333023
ARKTIKA-M 1             
1 47719U 21016A   25330.12769414 -.00000005  00000+0  00000+0 0  9999
2 47719  63.1753  86.2841 7194663 269.0636  15.7380  2.00612931 34715
FENGYUN 3E              
1 49008U 21062A   25334.62426377  .00000031  00000+0  35417-4 0  9993
2 49008  98.7476 335.2891 0000892 338.7851  21.3288 14.19877349228402
GOES 18                 
1 51850U 22021A   25334.54965159  .00000118  00000+0  00000+0 0  9995
2 51850   0.0007 185.8109 0000735 104.1696 200.5891  1.00272675  4607
NOAA 21 (JPSS-2)        
1 54234U 22150A   25334.61996860  .00000101  00000+0  68793-4 0  9998
2 54234  98.7444 271.0804 0002588  60.6219 299.5215 14.19518671158375
METEOSAT-12 (MTG-I1)    
1 54743U 22170C   25334.57673080  .00000015  00000+0  00000+0 0  9992
2 54743   0.7129  29.5246 0001370 210.2706  37.2267  1.00273384 10984
TIANMU-1 03             
1 55973U 23039A   25334.67602274  .00017143  00000+0  42575-3 0  9998
2 55973  97.5106 136.9954 0004525  95.7639 264.4123 15.40391659150204
TIANMU-1 04             
1 55974U 23039B   25334.59311501  .00017521  00000+0  43042-3 0  9990
2 55974  97.5038 136.1064 0005258  92.5058 267.6790 15.40716620150199
TIANMU-1 05             
1 55975U 23039C   25334.64937243  .00016704  00000+0  41554-3 0  9992
2 55975  97.5084 136.6558 0004264 112.9637 247.2059 15.40349240150181
TIANMU-1 06             
1 55976U 23039D   25334.59570397  .00017378  00000+0  42621-3 0  9994
2 55976  97.5095 137.0560 0004640 108.7109 251.4641 15.40769846150190
FENGYUN 3G              
1 56232U 23055A   25334.43547228  .00036186  00000+0  58191-3 0  9995
2 56232  49.9943 290.8971 0009223  89.0435 271.1589 15.52550769149113
METEOR-M2 3             
1 57166U 23091A   25334.60621958  .00000016  00000+0  25825-4 0  9996
2 57166  98.6395  28.3565 0004535  40.9971 319.1549 14.24023706126250
TIANMU-1 07             
1 57399U 23101A   25334.61059726  .00008306  00000+0  30843-3 0  9990
2 57399  97.2901  24.7296 0005528 112.6870 247.4954 15.27801272131306
TIANMU-1 08             
1 57400U 23101B   25334.64290922  .00007857  00000+0  29195-3 0  9999
2 57400  97.2890  24.5613 0007383 117.9440 242.2548 15.27786290131303
TIANMU-1 09             
1 57401U 23101C   25334.62988912  .00008716  00000+0  32337-3 0  9998
2 57401  97.2847  24.0685 0006651 116.8186 243.3735 15.27807173131306
TIANMU-1 10             
1 57402U 23101D   25334.59854030  .00008347  00000+0  30978-3 0  9997
2 57402  97.2926  24.8746 0008396 118.5874 241.6211 15.27797435131299
FENGYUN 3F              
1 57490U 23111A   25334.61144795  .00000079  00000+0  57615-4 0  9990
2 57490  98.7098  43.0998 0000725  82.2361 277.8898 14.19888381120684
ARKTIKA-M 2             
1 58584U 23198A   25329.38147876  .00000201  00000+0  00000+0 0  9999
2 58584  63.2269 176.7630 6863801 268.1765  18.8388  2.00606686 14237
TIANMU-1 11             
1 58645U 23205A   25334.60406054  .00007045  00000+0  29019-3 0  9991
2 58645  97.3623 354.4426 0009166 357.1069   3.0114 15.24371776107247
TIANMU-1 12             
1 58646U 23205B   25334.63021688  .00006748  00000+0  27898-3 0  9993
2 58646  97.3610 354.2777 0006954 343.4378  16.6631 15.24283067107232
TIANMU-1 13             
1 58647U 23205C   25334.59828711  .00007489  00000+0  30923-3 0  9997
2 58647  97.3638 354.4422 0006609 321.0249  39.0511 15.24290107107226
TIANMU-1 14             
1 58648U 23205D   25334.58155725  .00007096  00000+0  29322-3 0  9990
2 58648  97.3570 353.7858 0007543 325.0300  35.0441 15.24274960107224
TIANMU-1 19             
1 58660U 23208A   25334.62683366  .00009937  00000+0  37181-3 0  9997
2 58660  97.4384  85.6910 0004211 307.0417  53.0436 15.27507096106977
TIANMU-1 20             
1 58661U 23208B   25334.62276706  .00009936  00000+0  35846-3 0  9999
2 58661  97.4322  86.1228 0006614 316.0500  44.0214 15.28700297107042
TIANMU-1 21             
1 58662U 23208C   25334.57617753  .00012085  00000+0  40377-3 0  9999
2 58662  97.4369  87.9307 0006085 310.6952  49.3760 15.31152165107137
TIANMU-1 22             
1 58663U 23208D   25334.62476934  .00009274  00000+0  34961-3 0  9998
2 58663  97.4378  85.7533 0003271 342.2512  17.8612 15.27285309106982
TIANMU-1 15             
1 58700U 24004A   25334.64386635  .00007895  00000+0  32453-3 0  9996
2 58700  97.4633 156.1576 0005985 346.1776  13.9296 15.24429976105506
TIANMU-1 16             
1 58701U 24004B   25332.72308521  .00001245  00000+0  54124-4 0  9995
2 58701  97.4570 153.6495 0005468 351.9748   8.1401 15.24146454105217
TIANMU-1 17             
1 58702U 24004C   25334.61193111  .00007204  00000+0  29826-3 0  9994
2 58702  97.4605 155.9325 0004545 349.3111  10.8029 15.24226695105496
TIANMU-1 18             
1 58703U 24004D   25334.66081687  .00007567  00000+0  31321-3 0  9999
2 58703  97.4623 156.1738 0003890 350.5497   9.5666 15.24221309105502
INSAT-3DS               
1 58990U 24033A   25334.52174475 -.00000135  00000+0  00000+0 0  9993
2 58990   0.0160 250.7291 0001494   0.0277  88.8510  1.00270184 45079
METEOR-M2 4             
1 59051U 24039A   25334.60609075  .00000052  00000+0  42825-4 0  9999
2 59051  98.6750 291.7063 0007678  31.9987 328.1656 14.22398192 91035
GOES 19                 
1 60133U 24119A   25334.56187167 -.00000227  00000+0  00000+0 0  9998
2 60133   0.0196 111.8327 0001089 186.4546 258.5026  1.00272308  4977
FENGYUN 3H              
1 65815U 25219A   25334.60845440  .00000104  00000+0  69223-4 0  9992
2 65815  98.6566 274.4634 0000679  66.4200 293.7047 14.19899118  9201
